CCSDS_OMM_VERS = 2.0
CREATION_DATE  = 
ORIGINATOR     = 

OBJECT_NAME    = STARLINK-36879
OBJECT_ID      = 2026-038X
CENTER_NAME    = EARTH
REF_FRAME      = TEME
TIME_SYSTEM    = UTC
MEAN_ELEMENT_THEORY = SGP/SGP4

EPOCH          = 2026-03-10T02:00:03.000384
MEAN_MOTION    = 15.89451873
ECCENTRICITY   = .0001423
INCLINATION    = 97.2675
RA_OF_ASC_NODE = 79.4225
ARG_OF_PERICENTER = 84.2743
MEAN_ANOMALY   = 136.9743

EPHEMERIS_TYPE = 0
CLASSIFICATION_TYPE = U
NORAD_CAT_ID   = 67982
ELEMENT_SET_NO = 999
REV_AT_EPOCH   = 326
BSTAR          = -.63764E-2
MEAN_MOTION_DOT = -.1829211E-1
MEAN_MOTION_DDOT = .89907E-3

CCSDS_OMM_VERS = 2.0
CREATION_DATE  = 
ORIGINATOR     = 

OBJECT_NAME    = STARLINK-36867
OBJECT_ID      = 2026-038Y
CENTER_NAME    = EARTH
REF_FRAME      = TEME
TIME_SYSTEM    = UTC
MEAN_ELEMENT_THEORY = SGP/SGP4

EPOCH          = 2026-03-10T02:00:03.000384
MEAN_MOTION    = 15.89766470
ECCENTRICITY   = .0001446
INCLINATION    = 97.2671
RA_OF_ASC_NODE = 79.4270
ARG_OF_PERICENTER = 83.8848
MEAN_ANOMALY   = 147.4654

EPHEMERIS_TYPE = 0
CLASSIFICATION_TYPE = U
NORAD_CAT_ID   = 67983
ELEMENT_SET_NO = 999
REV_AT_EPOCH   = 326
BSTAR          = -.62182E-2
MEAN_MOTION_DOT = -.1812308E-1
MEAN_MOTION_DDOT = .88639E-3

CCSDS_OMM_VERS = 2.0
CREATION_DATE  = 
ORIGINATOR     = 

OBJECT_NAME    = STARLINK-36266
OBJECT_ID      = 2026-038Z
CENTER_NAME    = EARTH
REF_FRAME      = TEME
TIME_SYSTEM    = UTC
MEAN_ELEMENT_THEORY = SGP/SGP4

EPOCH          = 2026-03-10T02:00:03.000384
MEAN_MOTION    = 15.89625211
ECCENTRICITY   = .0001453
INCLINATION    = 97.2674
RA_OF_ASC_NODE = 79.4252
ARG_OF_PERICENTER = 88.8894
MEAN_ANOMALY   = 137.9198

EPHEMERIS_TYPE = 0
CLASSIFICATION_TYPE = U
NORAD_CAT_ID   = 67984
ELEMENT_SET_NO = 999
REV_AT_EPOCH   = 323
BSTAR          = -.62908E-2
MEAN_MOTION_DOT = -.1820464E-1
MEAN_MOTION_DDOT = .89259E-3

CCSDS_OMM_VERS = 2.0
CREATION_DATE  = 
ORIGINATOR     = 

OBJECT_NAME    = STARLINK-36802
OBJECT_ID      = 2026-038AA
CENTER_NAME    = EARTH
REF_FRAME      = TEME
TIME_SYSTEM    = UTC
MEAN_ELEMENT_THEORY = SGP/SGP4

EPOCH          = 2026-03-10T02:00:03.000384
MEAN_MOTION    = 15.89888673
ECCENTRICITY   = .0001339
INCLINATION    = 97.2669
RA_OF_ASC_NODE = 79.4285
ARG_OF_PERICENTER = 83.7355
MEAN_ANOMALY   = 151.7606

EPHEMERIS_TYPE = 0
CLASSIFICATION_TYPE = U
NORAD_CAT_ID   = 67985
ELEMENT_SET_NO = 999
REV_AT_EPOCH   = 326
BSTAR          = -.61104E-2
MEAN_MOTION_DOT = -.1792034E-1
MEAN_MOTION_DDOT = .86905E-3

CCSDS_OMM_VERS = 2.0
CREATION_DATE  = 
ORIGINATOR     = 

OBJECT_NAME    = STARLINK-36535
OBJECT_ID      = 2026-039A
CENTER_NAME    = EARTH
REF_FRAME      = TEME
TIME_SYSTEM    = UTC
MEAN_ELEMENT_THEORY = SGP/SGP4

EPOCH          = 2026-03-10T02:00:03.000384
MEAN_MOTION    = 15.81980344
ECCENTRICITY   = .0001575
INCLINATION    = 42.9991
RA_OF_ASC_NODE = 52.5264
ARG_OF_PERICENTER = 250.1887
MEAN_ANOMALY   = 239.8595

EPHEMERIS_TYPE = 0
CLASSIFICATION_TYPE = U
NORAD_CAT_ID   = 67986
ELEMENT_SET_NO = 999
REV_AT_EPOCH   = 294
BSTAR          = .17368E-3
MEAN_MOTION_DOT = .36128E-3
MEAN_MOTION_DDOT = 0

CCSDS_OMM_VERS = 2.0
CREATION_DATE  = 
ORIGINATOR     = 

OBJECT_NAME    = STARLINK-36744
OBJECT_ID      = 2026-039B
CENTER_NAME    = EARTH
REF_FRAME      = TEME
TIME_SYSTEM    = UTC
MEAN_ELEMENT_THEORY = SGP/SGP4

EPOCH          = 2026-03-10T02:00:03.000384
MEAN_MOTION    = 15.82032353
ECCENTRICITY   = .0001775
INCLINATION    = 42.9991
RA_OF_ASC_NODE = 52.5154
ARG_OF_PERICENTER = 276.8550
MEAN_ANOMALY   = 217.4494

EPHEMERIS_TYPE = 0
CLASSIFICATION_TYPE = U
NORAD_CAT_ID   = 67987
ELEMENT_SET_NO = 999
REV_AT_EPOCH   = 294
BSTAR          = -.309E-3
MEAN_MOTION_DOT = -.65163E-3
MEAN_MOTION_DDOT = 0

CCSDS_OMM_VERS = 2.0
CREATION_DATE  = 
ORIGINATOR     = 

OBJECT_NAME    = STARLINK-36734
OBJECT_ID      = 2026-039C
CENTER_NAME    = EARTH
REF_FRAME      = TEME
TIME_SYSTEM    = UTC
MEAN_ELEMENT_THEORY = SGP/SGP4

EPOCH          = 2026-03-10T02:00:03.000384
MEAN_MOTION    = 15.82032746
ECCENTRICITY   = .0001541
INCLINATION    = 42.9989
RA_OF_ASC_NODE = 52.5044
ARG_OF_PERICENTER = 258.7237
MEAN_ANOMALY   = 239.8433

EPHEMERIS_TYPE = 0
CLASSIFICATION_TYPE = U
NORAD_CAT_ID   = 67988
ELEMENT_SET_NO = 999
REV_AT_EPOCH   = 294
BSTAR          = -.18064E-3
MEAN_MOTION_DOT = -.3843E-3
MEAN_MOTION_DDOT = 0

CCSDS_OMM_VERS = 2.0
CREATION_DATE  = 
ORIGINATOR     = 

OBJECT_NAME    = STARLINK-36957
OBJECT_ID      = 2026-039D
CENTER_NAME    = EARTH
REF_FRAME      = TEME
TIME_SYSTEM    = UTC
MEAN_ELEMENT_THEORY = SGP/SGP4

EPOCH          = 2026-03-10T02:00:03.000384
MEAN_MOTION    = 15.82149769
ECCENTRICITY   = .0002223
INCLINATION    = 42.9988
RA_OF_ASC_NODE = 52.4933
ARG_OF_PERICENTER = 269.8963
MEAN_ANOMALY   = 232.8811

EPHEMERIS_TYPE = 0
CLASSIFICATION_TYPE = U
NORAD_CAT_ID   = 67989
ELEMENT_SET_NO = 999
REV_AT_EPOCH   = 294
BSTAR          = -.11888E-2
MEAN_MOTION_DOT = -.24548E-2
MEAN_MOTION_DDOT = 0

CCSDS_OMM_VERS = 2.0
CREATION_DATE  = 
ORIGINATOR     = 

OBJECT_NAME    = STARLINK-36951
OBJECT_ID      = 2026-039E
CENTER_NAME    = EARTH
REF_FRAME      = TEME
TIME_SYSTEM    = UTC
MEAN_ELEMENT_THEORY = SGP/SGP4

EPOCH          = 2026-03-09T22:00:01.999584
MEAN_MOTION    = 15.83119469
ECCENTRICITY   = .00015986
INCLINATION    = 42.9986
RA_OF_ASC_NODE = 53.5041
ARG_OF_PERICENTER = 252.7697
MEAN_ANOMALY   = 23.1641

EPHEMERIS_TYPE = 0
CLASSIFICATION_TYPE = U
NORAD_CAT_ID   = 67990
ELEMENT_SET_NO = 999
REV_AT_EPOCH   = 291
BSTAR          = -.66095736E-2
MEAN_MOTION_DOT = -.1292133E-1
MEAN_MOTION_DDOT = 0

CCSDS_OMM_VERS = 2.0
CREATION_DATE  = 
ORIGINATOR     = 

OBJECT_NAME    = STARLINK-36941
OBJECT_ID      = 2026-039F
CENTER_NAME    = EARTH
REF_FRAME      = TEME
TIME_SYSTEM    = UTC
MEAN_ELEMENT_THEORY = SGP/SGP4

EPOCH          = 2026-03-10T02:00:03.000384
MEAN_MOTION    = 15.82656571
ECCENTRICITY   = .0001641
INCLINATION    = 42.9986
RA_OF_ASC_NODE = 52.4718
ARG_OF_PERICENTER = 257.2286
MEAN_ANOMALY   = 253.8117

EPHEMERIS_TYPE = 0
CLASSIFICATION_TYPE = U
NORAD_CAT_ID   = 67991
ELEMENT_SET_NO = 999
REV_AT_EPOCH   = 294
BSTAR          = -.4599E-2
MEAN_MOTION_DOT = -.900745E-2
MEAN_MOTION_DDOT = 0

CCSDS_OMM_VERS = 2.0
CREATION_DATE  = 
ORIGINATOR     = 

OBJECT_NAME    = STARLINK-36950
OBJECT_ID      = 2026-039G
CENTER_NAME    = EARTH
REF_FRAME      = TEME
TIME_SYSTEM    = UTC
MEAN_ELEMENT_THEORY = SGP/SGP4

EPOCH          = 2026-03-10T02:00:03.000384
MEAN_MOTION    = 15.82893585
ECCENTRICITY   = .0001314
INCLINATION    = 42.9989
RA_OF_ASC_NODE = 52.4615
ARG_OF_PERICENTER = 271.9178
MEAN_ANOMALY   = 243.2335

EPHEMERIS_TYPE = 0
CLASSIFICATION_TYPE = U
NORAD_CAT_ID   = 67992
ELEMENT_SET_NO = 999
REV_AT_EPOCH   = 294
BSTAR          = -.61504E-2
MEAN_MOTION_DOT = -.1200689E-1
MEAN_MOTION_DDOT = 0

CCSDS_OMM_VERS = 2.0
CREATION_DATE  = 
ORIGINATOR     = 

OBJECT_NAME    = STARLINK-36975
OBJECT_ID      = 2026-039H
CENTER_NAME    = EARTH
REF_FRAME      = TEME
TIME_SYSTEM    = UTC
MEAN_ELEMENT_THEORY = SGP/SGP4

EPOCH          = 2026-03-10T02:00:03.000384
MEAN_MOTION    = 15.83141640
ECCENTRICITY   = .0001495
INCLINATION    = 42.9987
RA_OF_ASC_NODE = 52.4515
ARG_OF_PERICENTER = 270.9696
MEAN_ANOMALY   = 248.2466

EPHEMERIS_TYPE = 0
CLASSIFICATION_TYPE = U
NORAD_CAT_ID   = 67993
ELEMENT_SET_NO = 999
REV_AT_EPOCH   = 294
BSTAR          = -.72198E-2
MEAN_MOTION_DOT = -.1424869E-1
MEAN_MOTION_DDOT = 0

